EARTHCARE               
1 59908U 24101A   24178.75161476  .00016042  00000+0  24653-3 0  9993
2 59908  96.9816 306.2917 0005054  80.4437 279.7389 15.54311321  4476
